[{"OBJECT_NAME":"STARLINK-6116","OBJECT_ID":"2023-083AM","EPOCH":"2026-03-09T22:00:01.999584","MEAN_MOTION":15.09258733,"ECCENTRICITY":0.00017516,"INCLINATION":43.0005,"RA_OF_ASC_NODE":67.7295,"ARG_OF_PERICENTER":246.5364,"MEAN_ANOMALY":65.8031,"EPHEMERIS_TYPE":0,"CLASSIFICATION_TYPE":"U","NORAD_CAT_ID":56911,"ELEMENT_SET_NO":999,"REV_AT_EPOCH":567,"BSTAR":0.0041847936,"MEAN_MOTION_DOT":0.00068216,"MEAN_MOTION_DDOT":0},{"OBJECT_NAME":"COSMOS 1408 DEB","OBJECT_ID":"1982-092ADS","EPOCH":"2026-03-09T15:14:01.495392","MEAN_MOTION":15.34178134,"ECCENTRICITY":0.0122957,"INCLINATION":82.1939,"RA_OF_ASC_NODE":124.7493,"ARG_OF_PERICENTER":254.6382,"MEAN_ANOMALY":104.1246,"EPHEMERIS_TYPE":0,"CLASSIFICATION_TYPE":"U","NORAD_CAT_ID":50404,"ELEMENT_SET_NO":999,"REV_AT_EPOCH":22516,"BSTAR":0.0029669,"MEAN_MOTION_DOT":0.00127192,"MEAN_MOTION_DDOT":0}]
